OBJECT_NAME,OBJECT_ID,EPOCH,MEAN_MOTION,ECCENTRICITY,INCLINATION,RA_OF_ASC_NODE,ARG_OF_PERICENTER,MEAN_ANOMALY,EPHEMERIS_TYPE,CLASSIFICATION_TYPE,NORAD_CAT_ID,ELEMENT_SET_NO,REV_AT_EPOCH,BSTAR,MEAN_MOTION_DOT,MEAN_MOTION_DDOT
EYESAT A (AO-27),1993-061C,2026-06-22T10:53:39.890688,14.30943433,.00095494,98.6878,240.8657,86.2752,273.9523,0,U,22825,999,70775,.38709768E-4,.57E-6,0
ITAMSAT (IO-26),1993-061D,2026-06-22T10:21:45.369504,14.31370490,.00099958,98.6825,240.7615,71.4845,288.7423,0,U,22826,999,70806,.3881151E-4,.58E-6,0
RADIO ROSTO (RS15),1994-085A,2026-06-22T14:45:10.473984,11.27583462,.01561214,64.8186,294.4383,2.8733,357.3053,0,U,23439,999,29651,-.44780138E-4,-.44E-6,0
JAS-2 (FO-29),1996-046B,2026-06-22T11:40:34.134816,13.53274621,.03509299,98.5236,21.6325,82.7220,281.3662,0,U,24278,999,47388,.12357086E-4,-.2E-6,0
FORTE,1997-047A,2026-06-22T06:40:59.907360,14.27946830,.00246327,69.9539,2.5207,271.2316,88.5984,0,U,24920,999,49941,.61788342E-4,.96E-6,0
TECHSAT 1B (GO-32),1998-043D,2026-06-22T16:24:42.753024,14.24429238,.00013259,99.0069,166.5812,152.1038,208.0212,0,U,25397,999,45211,.36154593E-4,.37E-6,0
ISS (ZARYA),1998-067A,2026-06-22T17:40:44.812992,15.49373286,.00044556,51.6325,272.6245,218.9710,141.0958,0,U,25544,999,57261,.15394615E-3,.8151E-4,0
IMAGE,2000-017A,2026-06-21T10:12:18.318528,1.68666410,.74289842,94.2324,315.4279,287.3239,9.1864,0,U,26113,999,16157,0,-.86E-6,0
CLUSTER II-FM7 (SAMBA),2000-041A,2026-06-23T19:59:48.851520,0.44848953,.90604612,149.9074,51.9813,269.2403,359.6223,0,U,26410,999,2034,0,.5249E-4,0
CLUSTER II-FM8 (TANGO),2000-045B,2026-06-21T22:35:46.738752,0.44411872,.90650609,150.1402,52.7864,269.8634,2.6567,0,U,26464,999,2033,0,.4856E-4,0
ODIN,2001-007A,2026-06-22T08:41:54.885984,15.77483652,.00065763,97.3823,214.6432,138.3244,221.8524,0,U,26702,999,39021,.97827157E-3,.164483E-2,0
OMNI-M1,2001-026A,2026-06-21T13:26:06.294048,3.92401787,.00140727,44.8291,244.2559,54.4534,305.7323,0,U,26857,999,20574,0,-.2E-6,0
PCSAT (NO-44),2001-043C,2026-06-22T14:34:26.531328,14.31957590,.0006057,67.0498,230.2533,264.8434,95.1977,0,U,26931,999,29122,.41662019E-4,.29E-6,0
PROBA-1,2001-049B,2026-06-22T20:16:51.965760,15.07510781,.00563075,97.9597,182.5748,103.3555,257.3958,0,U,26958,999,34447,.11905832E-3,.1802E-4,0
SAUDISAT 1C (SO-50),2002-058C,2026-06-22T05:06:17.803584,14.83055677,.00751442,64.5516,113.4366,261.5322,97.7262,0,U,27607,999,26520,.99776982E-4,.697E-5,0
CORIOLIS,2003-001A,2026-06-22T11:34:09.912288,14.19946091,.00136597,98.7125,180.2861,192.9626,167.1202,0,U,27640,999,21497,.5912947E-4,.82E-6,0
CUTE-1 (CO-55),2003-031E,2026-06-22T17:27:15.352992,14.24338450,.00098661,98.6736,182.2165,162.2410,197.9116,0,U,27844,999,19246,.10595143E-3,.201E-5,0
CUBESAT XI-IV (CO-57),2003-031J,2026-06-22T10:29:48.420672,14.23623160,.00093886,98.6767,181.6388,181.3421,178.7734,0,U,27848,999,19212,.96418739E-4,.176E-5,0
MOZHAETS 4 (RS22),2003-042A,2026-06-22T20:35:27.328416,14.73476485,.00099606,98.3477,358.3770,249.2406,222.3722,0,U,27939,999,21638,.16757144E-3,.1035E-4,0
